H1 CPF  1  HTS 2022  4 27 12  6171 larets           NONE
H2  0304206 5557    27944 2022 04 27  0  0  0 2022 05 02  0  0  0   180 1 1  0 0 0
H5  0.0560 
H9 
10 0 59695  85320.00000  0   -5327930.001   -3240223.566   -3335743.094
10 0 59695  85500.00000  0   -4846402.579   -2608791.891   -4443983.585
10 0 59695  85680.00000  0   -4172029.865   -1898203.313   -5390384.194
10 0 59695  85860.00000  0   -3327803.404   -1139042.135   -6140844.927
10 0 59695  86040.00000  0   -2343523.015    -362840.692   -6668443.933
10 0 59695  86220.00000  0   -1254713.717     399208.900   -6954318.891
10 0 59696      0.00000  0    -101345.542    1117472.511   -6988263.879
10 0 59696    180.00000  0    1073597.621    1764987.357   -6769048.592
10 0 59696    360.00000  0    2225669.167    2318442.661   -6304464.849
10 0 59696    540.00000  0    3310597.030    2759004.593   -5611088.893
10 0 59696    720.00000  0    4285953.331    3072957.706   -4713756.601
10 0 59696    900.00000  0    5112809.931    3252145.117   -3644759.802
10 0 59696   1080.00000  0    5757320.819    3294187.051   -2442760.772
10 0 59696   1260.00000  0    6192157.908    3202464.159   -1151447.897
10 0 59696   1440.00000  0    6397730.250    2985856.534     182034.990
10 0 59696   1620.00000  0    6363113.035    2658240.941    1508828.313
10 0 59696   1800.00000  0    6086628.631    2237768.524    2780190.764
10 0 59696   1980.00000  0    5576043.424    1745960.946    3949349.097
10 0 59696   2160.00000  0    4848359.184    1206666.016    4973276.108
10 0 59696   2340.00000  0    3929213.340     644931.917    5814309.011
10 0 59696   2520.00000  0    2851923.844      85858.478    6441548.913
10 0 59696   2700.00000  0    1656223.887    -446515.393    6831983.428
10 0 59696   2880.00000  0     386755.069    -930238.904    6971310.633
10 0 59696   3060.00000  0    -908632.978   -1346355.222    6854444.742
10 0 59696   3240.00000  0   -2180708.114   -1679649.327    6485687.426
10 0 59696   3420.00000  0   -3380739.389   -1919209.278    5878570.277
10 0 59696   3600.00000  0   -4462385.519   -2058785.943    5055382.702
10 0 59696   3780.00000  0   -5383527.924   -2096943.939    4046374.222
10 0 59696   3960.00000  0   -6107960.096   -2036989.880    2888648.052
10 0 59696   4140.00000  0   -6606860.845   -1886681.851    1624790.033
10 0 59696   4320.00000  0   -6859989.661   -1657738.121     301273.441
10 0 59696   4500.00000  0   -6856529.625   -1365163.428   -1033302.878
10 0 59696   4680.00000  0   -6595532.554   -1026429.279   -2330055.913
10 0 59696   4860.00000  0   -6085947.720    -660557.142   -3541653.017
10 0 59696   5040.00000  0   -5346243.891    -287154.659   -4624058.598
10 0 59696   5220.00000  0   -4403652.651      74548.925   -5538119.500
10 0 59696   5400.00000  0   -3293083.591     406616.134   -6250930.479
10 0 59696   5580.00000  0   -2055772.572     693221.126   -6736939.826
10 0 59696   5760.00000  0    -737732.554     921344.119   -6978779.296
10 0 59696   5940.00000  0     611936.985    1081319.347   -6967813.237
10 0 59696   6120.00000  0    1942826.361    1167220.686   -6704410.847
10 0 59696   6300.00000  0    3205043.670    1177076.137   -6197944.281
10 0 59696   6480.00000  0    4351042.065    1112904.644   -5466496.436
10 0 59696   6660.00000  0    5337390.032     980572.040   -4536287.244
10 0 59696   6840.00000  0    6126436.813     789471.081   -3440819.080
10 0 59696   7020.00000  0    6687804.373     552032.857   -2219744.834
10 0 59696   7200.00000  0    6999639.572     283086.710    -917482.597
10 0 59696   7380.00000  0    7049554.067       -905.854     418390.266
10 0 59696   7560.00000  0    6835190.307    -282706.087    1738898.318
10 0 59696   7740.00000  0    6364377.474    -545200.652    2995513.113
10 0 59696   7920.00000  0    5654853.367    -772302.878    4141998.430
10 0 59696   8100.00000  0    4733567.475    -949802.515    5136161.963
10 0 59696   8280.00000  0    3635605.431   -1066120.567    5941441.121
10 0 59696   8460.00000  0    2402788.998   -1112926.961    6528254.933
10 0 59696   8640.00000  0    1082027.041   -1085596.443    6875078.648
10 0 59696   8820.00000  0    -276514.121    -983483.155    6969213.732
10 0 59696   9000.00000  0   -1621347.346    -810000.817    6807230.083
10 0 59696   9180.00000  0   -2901632.498    -572506.884    6395079.904
10 0 59696   9360.00000  0   -4069114.028    -281993.241    5747888.125
10 0 59696   9540.00000  0   -5079971.371      47404.433    4889420.105
10 0 59696   9720.00000  0   -5896512.036     399060.115    3851226.852
10 0 59696   9900.00000  0   -6488632.003     754647.845    2671490.097
10 0 59696  10080.00000  0   -6834979.726    1095034.902    1393606.672
10 0 59696  10260.00000  0   -6923768.700    1401233.208      64557.986
10 0 59696  10440.00000  0   -6753190.886    1655359.886   -1266870.899
10 0 59696  10620.00000  0   -6331405.347    1841554.770   -2551937.246
10 0 59696  10800.00000  0   -5676114.275    1946809.078   -3743766.232
10 0 59696  10980.00000  0   -4813749.107    1961661.423   -4799078.341
10 0 59696  11160.00000  0   -3778322.335    1880726.059   -5679736.915
10 0 59696  11340.00000  0   -2610020.506    1703036.046   -6354065.291
10 0 59696  11520.00000  0   -1353610.902    1432191.442   -6797906.864
10 0 59696  11700.00000  0     -56725.154    1076310.469   -6995406.512
10 0 59696  11880.00000  0    1231909.234     647789.544   -6939509.134
10 0 59696  12060.00000  0    2464244.849     162881.737   -6632186.936
10 0 59696  12240.00000  0    3594657.052    -358899.334   -6084382.301
10 0 59696  12420.00000  0    4581599.093    -895532.258   -5315665.293
10 0 59696  12600.00000  0    5389124.606   -1423378.038   -4353611.960
10 0 59696  12780.00000  0    5988233.581   -1918182.367   -3232901.097
10 0 59696  12960.00000  0    6357980.674   -2356151.710   -1994135.039
10 0 59696  13140.00000  0    6486289.293   -2715057.981    -682410.156
10 0 59696  13320.00000  0    6370421.598   -2975316.991     654318.682
10 0 59696  13500.00000  0    6017070.622   -3120984.211    1967019.472
10 0 59696  13680.00000  0    5442055.302   -3140611.426    3207436.626
10 0 59696  13860.00000  0    4669624.408   -3027913.824    4329924.904
10 0 59696  14040.00000  0    3731412.094   -2782209.117    5293176.088
10 0 59696  14220.00000  0    2665100.220   -2408611.655    6061769.411
10 0 59696  14400.00000  0    1512852.062   -1917966.843    6607478.630
10 0 59696  14580.00000  0     319600.556   -1326534.438    6910293.382
10 0 59696  14760.00000  0    -868736.991    -655434.950    6959129.476
10 0 59696  14940.00000  0   -2007044.855      70119.845    6752214.409
10 0 59696  15120.00000  0   -3052734.717     821784.844    6297146.625
10 0 59696  15300.00000  0   -3967356.691    1569196.578    5610627.747
10 0 59696  15480.00000  0   -4718043.362    2281206.121    4717871.122
10 0 59696  15660.00000  0   -5278733.516    2927186.659    3651693.188
10 0 59696  15840.00000  0   -5631118.165    3478359.869    2451308.770
10 0 59696  16020.00000  0   -5765268.681    3909080.550    1160874.013
10 0 59696  16200.00000  0   -5679915.671    4198017.946    -172176.861
10 0 59696  16380.00000  0   -5382357.532    4329166.271   -1498928.865
10 0 59696  16560.00000  0   -4888008.931    4292635.354   -2770836.282
10 0 59696  16740.00000  0   -4219609.261    4085176.680   -3941541.624
10 0 59696  16920.00000  0   -3406143.648    3710422.017   -4968572.119
10 0 59696  17100.00000  0   -2481546.854    3178835.924   -5814845.813
10 0 59696  17280.00000  0   -1483265.006    2507396.901   -6449945.072
10 0 59696  17460.00000  0    -450735.036    1719025.316   -6851130.754
10 0 59696  17640.00000  0     576152.397     841787.145   -7004074.019
10 0 59696  17820.00000  0    1558552.489     -92093.097   -6903310.122
10 0 59696  18000.00000  0    2460092.946   -1047385.245   -6552412.319
10 0 59696  18180.00000  0    3248183.701   -1987140.938   -5963881.016
10 0 59696  18360.00000  0    3895178.128   -2874080.012   -5158755.381
10 0 59696  18540.00000  0    4379356.143   -3672045.998   -4165943.006
10 0 59696  18720.00000  0    4685685.187   -4347476.446   -3021261.807
10 0 59696  18900.00000  0    4806331.127   -4870828.070   -1766217.517
10 0 59696  19080.00000  0    4740890.032   -5217896.331    -446536.211
10 0 59696  19260.00000  0    4496312.723   -5370957.561     889504.231
10 0 59696  19440.00000  0    4086517.298   -5319663.773    2192876.431
10 0 59696  19620.00000  0    3531701.718   -5061634.850    3415659.311
10 0 59696  19800.00000  0    2857390.435   -4602714.693    4512856.889
10 0 59696  19980.00000  0    2093267.302   -3956874.527    5444099.746
10 0 59696  20160.00000  0    1271856.747   -3145769.656    6175154.890
10 0 59696  20340.00000  0     427118.035   -2197973.532    6679185.303
10 0 59696  20520.00000  0    -406978.398   -1147930.462    6937714.716
10 0 59696  20700.00000  0   -1197828.185     -34673.277    6941281.956
10 0 59696  20880.00000  0   -1915475.817    1099650.688    6689772.966
10 0 59696  21060.00000  0   -2533759.347    2211391.601    6192421.402
10 0 59696  21240.00000  0   -3031277.365    3257092.004    5467480.726
10 0 59696  21420.00000  0   -3392146.816    4195208.466    4541575.501
10 0 59696  21600.00000  0   -3606525.800    4987796.577    3448741.222
10 0 59696  21780.00000  0   -3670875.479    5602088.744    2229173.953
10 0 59696  21960.00000  0   -3587946.679    6011886.152     927729.085
10 0 59696  22140.00000  0   -3366492.845    6198695.291    -407767.505
10 0 59696  22320.00000  0   -3020724.930    6152555.284   -1728331.337
10 0 59696  22500.00000  0   -2569532.365    5872500.331   -2985676.239
10 0 59696  22680.00000  0   -2035511.828    5366635.112   -4134013.607
10 0 59696  22860.00000  0   -1443871.510    4651840.846   -5131715.646
10 0 59696  23040.00000  0    -821269.550    3753137.395   -5942783.429
10 0 59696  23220.00000  0    -194641.279    2702746.843   -6538080.732
99
